{
    "links": {
        "self": "http://www.neowsapp.com/rest/v1/neo/3794973?api_key=iIulBulltgU6a56xZRHN4H3l9WmuAYTsLGpBGhQ2"
    },
    "id": "3794973",
    "neo_reference_id": "3794973",
    "name": "(2017 YW)",
    "designation": "2017 YW",
    "nasa_jpl_url": "http://ssd.jpl.nasa.gov/sbdb.cgi?sstr=3794973",
    "absolute_magnitude_h": 26.7,
    "estimated_diameter": {
        "kilometers": {
            "estimated_diameter_min": 0.0121494041,
            "estimated_diameter_max": 0.0271668934
        },
        "meters": {
            "estimated_diameter_min": 12.14940408,
            "estimated_diameter_max": 27.1668934089
        },
        "miles": {
            "estimated_diameter_min": 0.0075492874,
            "estimated_diameter_max": 0.0168807197
        },
        "feet": {
            "estimated_diameter_min": 39.8602508817,
            "estimated_diameter_max": 89.1302305717
        }
    },
    "is_potentially_hazardous_asteroid": false,
    "close_approach_data": [
        {
            "close_approach_date": "1915-11-03",
            "close_approach_date_full": "1915-Nov-03 12:46",
            "epoch_date_close_approach": -1709205240000,
            "relative_velocity": {
                "kilometers_per_second": "16.5299770695",
                "kilometers_per_hour": "59507.9174501356",
                "miles_per_hour": "36975.9057067245"
            },
            "miss_distance": {
                "astronomical": "0.3476456645",
                "lunar": "135.2341634905",
                "kilometers": "52007050.923934615",
                "miles": "32315682.946003087"
            },
            "orbiting_body": "Earth"
        },
        {
            "close_approach_date": "2017-12-22",
            "close_approach_date_full": "2017-Dec-22 19:07",
            "epoch_date_close_approach": 1513969620000,
            "relative_velocity": {
                "kilometers_per_second": "8.2584141776",
                "kilometers_per_hour": "29730.2910392983",
                "miles_per_hour": "18473.2466738351"
            },
            "miss_distance": {
                "astronomical": "0.0203100548",
                "lunar": "7.9006113172",
                "kilometers": "3038340.937663276",
                "miles": "1887937.5138381688"
            },
            "orbiting_body": "Earth"
        },
        {
            "close_approach_date": "2019-11-03",
            "close_approach_date_full": "2019-Nov-03 16:45",
            "epoch_date_close_approach": 1572799500000,
            "relative_velocity": {
                "kilometers_per_second": "6.9168589175",
                "kilometers_per_hour": "24900.6921030426",
                "miles_per_hour": "15472.3217125822"
            },
            "miss_distance": {
                "astronomical": "1.4956756846",
                "lunar": "581.8178413094",
                "kilometers": "223749896.626951802",
                "miles": "139031738.7765947876"
            },
            "orbiting_body": "Juptr"
        },
        {
            "close_approach_date": "2091-02-15",
            "close_approach_date_full": "2091-Feb-15 21:07",
            "epoch_date_close_approach": 3822412020000,
            "relative_velocity": {
                "kilometers_per_second": "8.5043700016",
                "kilometers_per_hour": "30615.7320059237",
                "miles_per_hour": "19023.4252566808"
            },
            "miss_distance": {
                "astronomical": "1.9180787368",
                "lunar": "746.1326286152",
                "kilometers": "286940493.517570616",
                "miles": "178296554.9507058608"
            },
            "orbiting_body": "Juptr"
        }
    ],
    "orbital_data": {
        "orbit_id": "1",
        "orbit_determination_date": "2017-12-23 13:42:09",
        "first_observation_date": "2017-12-20",
        "last_observation_date": "2017-12-23",
        "data_arc_in_days": 3,
        "observations_used": 35,
        "orbit_uncertainty": "7",
        "minimum_orbit_intersection": ".0364111",
        "jupiter_tisserand_invariant": "3.048",
        "epoch_osculation": "2459000.5",
        "eccentricity": ".6230807628675286",
        "semi_major_axis": "2.706523999128975",
        "inclination": "4.040615181605979",
        "ascending_node_longitude": "262.645562427887",
        "orbital_period": "1626.358375067116",
        "perihelion_distance": "1.020140961032419",
        "perihelion_argument": "182.5833085497214",
        "aphelion_distance": "4.392907037225531",
        "perihelion_time": "2459730.363628812039",
        "mean_anomaly": "198.4421844530478",
        "mean_motion": ".2213534270914574",
        "equinox": "J2000",
        "orbit_class": {
            "orbit_class_type": "AMO",
            "orbit_class_description": "Near-Earth asteroid orbits similar to that of 1221 Amor",
            "orbit_class_range": "1.017 AU < q (perihelion) < 1.3 AU"
        }
    },
    "is_sentry_object": false
}